COSMOS 2433 (720)       
1 32275U 07052A   22085.71709120 -.00000085  00000+0  00000+0 0  9999
2 32275  66.0834   7.4149 0003528 282.9282 225.2475  2.13104155112209
COSMOS 2432 (719)       
1 32276U 07052B   22085.38844698 -.00000083  00000+0  00000+0 0  9991
2 32276  66.0968   7.5251 0011915 329.0974 235.4901  2.13103551112197
COSMOS 2434 (721)       
1 32393U 07065A   22085.25982603  .00000050  00000+0  00000+0 0  9993
2 32393  64.4005 244.2648 0004933  78.4434 328.1951  2.13103175110903
COSMOS 2436 (723)       
1 32395U 07065C   22085.52941872  .00000046  00000+0  00000+0 0  9993
2 32395  64.4090 244.3117 0016301   8.1682  21.2213  2.13103081110849
COSMOS 2456 (730)       
1 36111U 09070A   22085.59502931  .00000046  00000+0  00000+0 0  9997
2 36111  64.3316 123.8996 0005380 300.2751 170.2415  2.13099231 95575
COSMOS 2457 (733)       
1 36112U 09070B   22085.70009087  .00000047  00000+0  00000+0 0  9996
2 36112  64.3140 123.7739 0004736 188.4194 129.3316  2.13101394 95575
COSMOS 2461 (735)       
1 36401U 10007B   22085.72699374 -.00000085  00000+0  00000+0 0  9998
2 36401  65.9709   6.2643 0022014   4.1948   9.0814  2.13103861 93939
COSMOS 2460 (732)       
1 36402U 10007C   22085.10667616 -.00000082  00000+0  00000+0 0  9992
2 36402  65.9579   6.2368 0002144 341.9886 223.0355  2.13106508 93911
COSMOS 2464 (736)       
1 37139U 10041C   22085.46010461  .00000045  00000+0  00000+0 0  9995
2 37139  63.9998 243.3748 0030000  14.2378  44.8966  2.13100811 89986
COSMOS 2476 (744)       
1 37867U 11064A   22085.80742581  .00000047  00000+0  00000+0 0  9994
2 37867  64.6212 125.2165 0022819 239.4103 298.8482  2.13101891 80926
COSMOS 2477 (745)       
1 37868U 11064B   22085.98068928  .00000049  00000+0  00000+0 0  9992
2 37868  64.6287 125.2740 0020129 240.6795 248.6593  2.13101718 80880
COSMOS 2475 (743)       
1 37869U 11064C   22085.52959267  .00000045  00000+0  00000+0 0  9994
2 37869  64.6361 125.2965 0024457 257.3984 203.8065  2.13101910 80887
COSMOS 2485 (747)       
1 39155U 13019A   22085.76195385  .00000047  00000+0  00000+0 0  9997
2 39155  64.7855 125.6285 0023182 235.4816 312.2957  2.13101901 69398
COSMOS 2492 (754)       
1 39620U 14012A   22085.92336343 -.00000086  00000+0  00000+0 0  9991
2 39620  65.8441   5.9027 0014933 325.4975  20.6690  2.13103280 62346
COSMOS 2500 (755)       
1 40001U 14032A   22085.56900655 -.00000084  00000+0  00000+0 0  9999
2 40001  65.7842   5.7818 0005038 221.8657  71.3330  2.13102513 60556
COSMOS 2501 (702K)      
1 40315U 14075A   22085.85685169  .00000039  00000+0  00000+0 0  9995
2 40315  63.7081 244.0615 0016538 205.2004 116.4078  2.13101478 56968
COSMOS 2514 (751)       
1 41330U 16008A   22085.53308109 -.00000085  00000+0  00000+0 0  9994
2 41330  65.5847   5.4957 0008852 223.4431 225.8744  2.13102891 47729
COSMOS 2516 (753)       
1 41554U 16032A   22085.64942179  .00000043  00000+0  00000+0 0  9995
2 41554  63.9336 244.3215 0012340 210.8883 228.7654  2.13106232 45331
COSMOS 2522 (752)       
1 42939U 17055A   22085.74527216  .00000042  00000+0  00000+0 0  9990
2 42939  64.1679 244.6889 0005117 241.1592 130.1853  2.13101977 35090
COSMOS 2527 (756)       
1 43508U 18053A   22085.62785343  .00000046  00000+0  00000+0 0  9990
2 43508  64.9487 125.6153 0009313 237.9867  75.3830  2.13102585 29375
COSMOS 2529 (757)       
1 43687U 18086A   22085.74290486  .00000043  00000+0  00000+0 0  9993
2 43687  64.3823 244.9831 0007284 274.3025  50.7400  2.13102183 26398
COSMOS 2534 (758)       
1 44299U 19030A   22085.67130846  .00000044  00000+0  00000+0 0  9999
2 44299  64.4543 244.8623 0010470 296.8373 107.9017  2.13102097 22043
COSMOS 2544 (759)       
1 44850U 19088A   22085.56305688  .00000046  00000+0  00000+0 0  9993
2 44850  64.9339 125.4713 0013948 261.5089  45.6849  2.13102420 17803
COSMOS 2545 (760)       
1 45358U 20018A   22085.08677587 -.00000083  00000+0  00000+0 0  9991
2 45358  64.9216   6.1863 0009188 261.7580 249.6473  2.13102783 15754
COSMOS 2547 (705K)      
1 46805U 20075A   22085.65418389  .00000044  00000+0  00000+0 0  9994
2 46805  64.6772 244.2628 0005224 245.4601 193.5374  2.13103151 11012
